NORAD_CAT_ID,OBJECT_NAME,OBJECT_TYPE,EPOCH,MEAN_MOTION,ECCENTRICITY,INCLINATION,RA_OF_ASC_NODE,ARG_OF_PERICENTER,MEAN_ANOMALY,BSTAR,MEAN_MOTION_DOT,MEAN_MOTION_DDOT,TLE_LINE0,TLE_LINE1,TLE_LINE2,SEMIMAJOR_AXIS,PERIOD,APOGEE,PERIGEE,DECAYED
56773.0,STARLINK-6296,PAYLOAD,2024-02-28 22:00:00,14.99305605,0.0003258,70.0022,9.8375,268.4477,23.556,-0.00056298,-6.977e-05,0.0,0 STARLINK-6296,1 56773U 23078G   24059.91667824 -.00006977  00000-0 -56298-3 0  9995,2 56773  70.0022   9.8375 0003258 268.4477  23.5560 14.99305605  5759,6947.178,96.044,571.306,566.779,0.0
56773.0,STARLINK-6296,PAYLOAD,2024-02-29 06:00:00,14.9928042,0.0003249,70.0021,8.9957,274.1391,16.5193,0.0027603,0.00033827,0.0,0 STARLINK-6296,1 56773U 23078G   24060.25001157  .00033827  00000-0  27603-2 0  9994,2 56773  70.0021   8.9957 0003249 274.1391  16.5193 14.99280420 43161,6947.255,96.046,571.378,566.863,0.0
56773.0,STARLINK-6296,PAYLOAD,2024-02-29 14:00:01,14.99295443,0.0003241,70.002,8.154,270.1221,19.1785,0.00036342,4.355e-05,0.0,0 STARLINK-6296,1 56773U 23078G   24060.58334491  .00004355  00000-0  36342-3 0  9995,2 56773  70.0020   8.1540 0003241 270.1221  19.1785 14.99295443  5851,6947.209,96.045,571.326,566.822,0.0
56773.0,STARLINK-6296,PAYLOAD,2024-02-29 22:00:00,14.99365964,0.0003303,70.0022,7.3126,266.4246,21.4979,-0.0095674,-0.00115456,0.0,0 STARLINK-6296,1 56773U 23078G   24060.91667824 -.00115456  00000-0 -95674-2 0  9990,2 56773  70.0022   7.3126 0003303 266.4246  21.4979 14.99365964 43262,6946.991,96.041,571.151,566.562,0.0
56773.0,STARLINK-6296,PAYLOAD,2024-03-01 03:07:28,14.99306325,0.0002756,70.0003,6.7728,264.8094,95.2751,1.4443e-05,8.3e-07,0.0,0 STARLINK-6296,1 56773U 23078G   24061.13019095  .00000083  00000-0  14443-4 0  9990,2 56773  70.0003   6.7728 0002756 264.8094  95.2751 14.99306325 43292,6947.175,96.044,570.955,567.126,0.0
56773.0,STARLINK-6296,PAYLOAD,2024-03-01 14:20:13,14.99141795,0.0002666,70.0006,5.5927,310.1901,49.9024,-0.0015939,-0.00019462,0.0,0 STARLINK-6296,1 56773U 23078G   24061.59737888 -.00019462  00000-0 -15939-2 0  9999,2 56773  70.0006   5.5927 0002666 310.1901  49.9024 14.99141795 43102,6947.684,96.055,571.401,567.696,0.0
56773.0,STARLINK-6296,PAYLOAD,2024-03-02 03:09:25,14.98783755,0.000325,70.0013,4.2494,250.3227,109.7582,-0.0048864,-0.00058598,0.0,0 STARLINK-6296,1 56773U 23078G   24062.13154577 -.00058598  00000-0 -48864-2 0  9994,2 56773  70.0013   4.2494 0003250 250.3227 109.7582 14.98783755 43449,6948.79,96.078,572.913,568.397,0.0
56773.0,STARLINK-6296,PAYLOAD,2024-03-02 14:00:01,14.98313504,0.0002809,70.0018,3.108,271.7791,5.8176,0.0016506,0.00019648,0.0,0 STARLINK-6296,1 56773U 23078G   24062.58334491  .00019648  00000-0  16506-2 0  9997,2 56773  70.0018   3.1080 0002809 271.7791   5.8176 14.98313504  5955,6950.244,96.108,574.061,570.157,0.0
56773.0,STARLINK-6296,PAYLOAD,2024-03-02 22:00:00,14.98358522,0.0002843,70.0019,2.2676,269.129,5.9299,-0.0019886,-0.00023758,0.0,0 STARLINK-6296,1 56773U 23078G   24062.91667824 -.00023758  00000-0 -19886-2 0  9996,2 56773  70.0019   2.2676 0002843 269.1290   5.9299 14.98358522 43565,6950.105,96.105,573.946,569.994,0.0
56773.0,STARLINK-6296,PAYLOAD,2024-03-03 14:00:01,14.98304848,0.0002742,70.0016,0.5865,267.8235,2.3004,0.002343,0.00027956,0.0,0 STARLINK-6296,1 56773U 23078G   24063.58335648  .00027956  00000-0  23430-2 0  9998,2 56773  70.0016   0.5865 0002742 267.8235   2.3004 14.98304848  5942,6950.271,96.109,574.041,570.23,0.0
56773.0,STARLINK-6296,PAYLOAD,2024-03-03 22:00:00,14.98355733,0.0002782,70.0018,359.746,265.7876,1.7301,-0.0021843,-0.00026076,0.0,0 STARLINK-6296,1 56773U 23078G   24063.91667824 -.00026076  00000-0 -21843-2 0  9999,2 56773  70.0018 359.7460 0002782 265.7876   1.7301 14.98355733 43715,6950.113,96.105,573.912,570.045,0.0
56773.0,STARLINK-6296,PAYLOAD,2024-03-04 14:00:01,14.98290965,0.0002724,70.0015,358.0648,271.5692,350.9663,0.0040853,0.00048944,0.0,0 STARLINK-6296,1 56773U 23078G   24064.58334491  .00048944  00000-0  40853-2 0  9992,2 56773  70.0015 358.0648 0002724 271.5692 350.9663 14.98290965  5936,6950.314,96.11,574.072,570.285,0.0
56773.0,STARLINK-6296,PAYLOAD,2024-03-04 22:00:00,14.98344545,0.0002787,70.0018,357.2244,269.8888,350.0851,-0.0016281,-0.00019472,0.0,0 STARLINK-6296,1 56773U 23078G   24064.91667824 -.00019472  00000-0 -16281-2 0  9992,2 56773  70.0018 357.2244 0002787 269.8888 350.0851 14.98344545 43866,6950.148,96.106,573.95,570.076,0.0
56773.0,STARLINK-6296,PAYLOAD,2024-03-05 14:00:01,14.98299049,0.0002877,70.0016,355.5431,270.6109,344.3369,0.0041299,0.00049494,0.0,0 STARLINK-6296,1 56773U 23078G   24065.58334491  .00049494  00000-0  41299-2 0  9999,2 56773  70.0016 355.5431 0002877 270.6109 344.3369 14.98299049  5832,6950.289,96.109,574.153,570.154,0.0
56773.0,STARLINK-6296,PAYLOAD,2024-03-05 22:00:00,14.98364158,0.0002921,70.0019,354.7028,268.3725,344.0309,-0.0030448,-0.00036268,0.0,0 STARLINK-6296,1 56773U 23078G   24065.91667824 -.00036268  00000-0 -30448-2 0  9996,2 56773  70.0019 354.7028 0002921 268.3725 344.0309 14.98364158 44014,6950.087,96.105,573.982,569.922,0.0
56773.0,STARLINK-6296,PAYLOAD,2024-03-06 04:53:18,14.98314109,0.0002764,70.0005,353.9792,271.5813,88.503,0.00032921,3.836e-05,0.0,0 STARLINK-6296,1 56773U 23078G   24066.20368452  .00003836  00000-0  32921-3 0  9996,2 56773  70.0005 353.9792 0002764 271.5813  88.5030 14.98314109 43793,6950.242,96.108,574.028,570.186,0.0
56773.0,STARLINK-6296,PAYLOAD,2024-03-06 19:18:30,14.98320314,0.0002822,70.0011,352.4639,271.9109,88.1727,8.6387e-05,9.38e-06,0.0,0 STARLINK-6296,1 56773U 23078G   24066.80452517  .00000938  00000-0  86387-4 0  9994,2 56773  70.0011 352.4639 0002822 271.9109  88.1727 14.98320314 44145,6950.223,96.108,574.049,570.126,0.0
56773.0,STARLINK-6296,PAYLOAD,2024-03-07 03:19:11,14.98326637,0.0002482,70.0005,351.6238,261.2981,98.7897,4.632e-05,4.6e-06,0.0,0 STARLINK-6296,1 56773U 23078G   24067.13832418  .00000460  00000-0  46320-4 0  9996,2 56773  70.0005 351.6238 0002482 261.2981  98.7897 14.98326637 43931,6950.203,96.107,573.793,570.343,0.0
56773.0,STARLINK-6296,PAYLOAD,2024-03-08 01:45:03,14.98336263,0.0002334,70.0003,349.2665,257.3797,102.7101,-7.5224e-05,-9.9e-06,0.0,0 STARLINK-6296,1 56773U 23078G   24068.07296220 -.00000990  00000-0 -75224-4 0  9990,2 56773  70.0003 349.2665 0002334 257.3797 102.7101 14.98336263 44338,6950.174,96.107,573.661,570.416,0.0
56773.0,STARLINK-6296,PAYLOAD,2024-03-08 11:21:52,14.98334398,0.0002551,70.0005,348.2567,272.4004,87.6863,-1.6555e-05,-2.9e-06,0.0,0 STARLINK-6296,1 56773U 23078G   24068.47352096 -.00000290  00000-0 -16555-4 0  9993,2 56773  70.0005 348.2567 0002551 272.4004  87.6863 14.98334398 44131,6950.179,96.107,573.817,570.271,0.0
56773.0,STARLINK-6296,PAYLOAD,2024-03-09 03:23:12,14.98330115,0.0002345,70.0008,346.5736,272.8991,87.1899,4.5874e-05,4.54e-06,0.0,0 STARLINK-6296,1 56773U 23078G   24069.14112222  .00000454  00000-0  45874-4 0  9999,2 56773  70.0008 346.5736 0002345 272.8991  87.1899 14.98330115 44499,6950.193,96.107,573.687,570.428,0.0
56773.0,STARLINK-6296,PAYLOAD,2024-03-09 11:23:52,14.9834823,0.0002426,70.0009,345.7314,276.1612,83.9271,-0.00029196,-3.576e-05,0.0,0 STARLINK-6296,1 56773U 23078G   24069.47491780 -.00003576  00000-0 -29196-3 0  9992,2 56773  70.0009 345.7314 0002426 276.1612  83.9271 14.98348230 44541,6950.137,96.106,573.688,570.315,0.0
56773.0,STARLINK-6296,PAYLOAD,2024-03-10 03:25:13,14.98331017,0.000247,70.0008,344.0484,266.156,93.9316,6.2179e-06,-1.9e-07,0.0,0 STARLINK-6296,1 56773U 23078G   24070.14252004 -.00000019  00000-0  62179-5 0  9990,2 56773  70.0008 344.0484 0002470 266.1560  93.9316 14.98331017 44647,6950.19,96.107,573.771,570.338,0.0
56773.0,STARLINK-6296,PAYLOAD,2024-03-10 11:25:54,14.9833256,0.0002373,70.0013,343.2071,274.0577,86.0311,-1.2202e-05,-2.38e-06,0.0,0 STARLINK-6296,1 56773U 23078G   24070.47631998 -.00000238  00000-0 -12202-4 0  9994,2 56773  70.0013 343.2071 0002373 274.0577  86.0311 14.98332560 44433,6950.185,96.107,573.699,570.401,0.0
56773.0,STARLINK-6296,PAYLOAD,2024-03-10 22:38:50,14.9832768,0.0002484,70.0007,342.0283,272.759,87.3284,-3.7907e-05,-5.45e-06,0.0,0 STARLINK-6296,1 56773U 23078G   24070.94364297 -.00000545  00000-0 -37907-4 0  9991,2 56773  70.0007 342.0283 0002484 272.7590  87.3284 14.98327680 44509,6950.2,96.107,573.791,570.339,0.0
56773.0,STARLINK-6296,PAYLOAD,2024-03-11 03:27:14,14.98333358,0.0002653,70.0001,341.522,267.2339,92.8516,-3.8292e-05,-5.5e-06,0.0,0 STARLINK-6296,1 56773U 23078G   24071.14391841 -.00000550  00000-0 -38292-4 0  9993,2 56773  70.0001 341.5220 0002653 267.2339  92.8516 14.98333358 44795,6950.183,96.107,573.891,570.204,0.0
56773.0,STARLINK-6296,PAYLOAD,2024-03-11 11:27:55,14.98320263,0.0002713,69.9994,340.6812,264.7621,95.3228,0.00010646,1.177e-05,0.0,0 STARLINK-6296,1 56773U 23078G   24071.47772245  .00001177  00000-0  10646-3 0  9996,2 56773  69.9994 340.6812 0002713 264.7621  95.3228 14.98320263 44848,6950.223,96.108,573.974,570.202,0.0
56773.0,STARLINK-6296,PAYLOAD,2024-03-12 16:18:20,14.98285193,0.0002861,69.9996,337.6502,263.6953,96.388,0.00072237,8.527e-05,0.0,0 STARLINK-6296,1 56773U 23078G   24072.67940623  .00008527  00000-0  72237-3 0  9996,2 56773  69.9996 337.6502 0002861 263.6953  96.3880 14.98285193 45020,6950.331,96.11,574.185,570.208,0.0
56773.0,STARLINK-6296,PAYLOAD,2024-03-12 17:54:28,14.98317687,0.000284,69.9995,337.4832,268.6354,91.448,0.00019937,2.286e-05,0.0,0 STARLINK-6296,1 56773U 23078G   24072.74616168  .00002286  00000-0  19937-3 0  9992,2 56773  69.9995 337.4832 0002840 268.6354  91.4480 14.98317687 44777,6950.231,96.108,574.07,570.122,0.0
56773.0,STARLINK-6296,PAYLOAD,2024-03-13 03:31:16,14.98333214,0.0002836,69.9995,336.4737,270.8723,89.2111,2.1311e-05,1.61e-06,0.0,0 STARLINK-6296,1 56773U 23078G   24073.14671684  .00000161  00000-0  21311-4 0  9991,2 56773  69.9995 336.4737 0002836 270.8723  89.2111 14.98333214 45096,6950.183,96.107,574.019,570.077,0.0
